{
  "type": "FeatureCollection",
  "features": [
    {
      "type": "Feature",
      "properties": {
        "norad_id": 36558,
        "name": "COSMOS 2251 DEB",
        "group": "cosmos-2251-debris",
        "lat": -55.21676355460557,
        "lon": 145.90849636920936,
        "alt_km": 708.4734067059735,
        "timestamp": "2025-12-04T10:51:50.503438+00:00",
        "meta_object_name": "COSMOS 2251 DEB",
        "meta_object_id": "1993-036BDU",
        "meta_epoch": "2025-11-30T14:44:20.411232",
        "meta_mean_motion": 14.55224096,
        "meta_eccentricity": 0.0013208,
        "meta_inclination": 74.0432,
        "meta_ra_of_asc_node": 177.4971,
        "meta_arg_of_pericenter": 265.9101,
        "meta_mean_anomaly": 94.0552,
        "meta_ephemeris_type": 0,
        "meta_classification_type": "U",
        "meta_norad_cat_id": 36558,
        "meta_element_set_no": 999,
        "meta_rev_at_epoch": 85092,
        "meta_bstar": 0.00073526,
        "meta_mean_motion_dot": 3.158e-05,
        "meta_mean_motion_ddot": 0,
        "tle_line1": "1 36558U 93036BDU 25334.61412513  .00003158  00000+0  73526-3 0  9990",
        "tle_line2": "2 36558  74.0432 177.4971 0013208 265.9101  94.0552 14.55224096850920"
      },
      "geometry": {
        "type": "Point",
        "coordinates": [
          145.90849636920936,
          -55.21676355460557
        ]
      }
    },
    {
      "type": "Feature",
      "properties": {
        "norad_id": 36559,
        "name": "COSMOS 2251 DEB",
        "group": "cosmos-2251-debris",
        "lat": 46.00012529009562,
        "lon": -173.16003555295552,
        "alt_km": 843.858552040927,
        "timestamp": "2025-12-04T10:51:50.503448+00:00",
        "meta_object_name": "COSMOS 2251 DEB",
        "meta_object_id": "1993-036BDV",
        "meta_epoch": "2025-12-03T03:17:00.548160",
        "meta_mean_motion": 13.95062123,
        "meta_eccentricity": 0.02603187,
        "meta_inclination": 74.1298,
        "meta_ra_of_asc_node": 26.2197,
        "meta_arg_of_pericenter": 61.9669,
        "meta_mean_anomaly": 300.7529,
        "meta_ephemeris_type": 0,
        "meta_classification_type": "U",
        "meta_norad_cat_id": 36559,
        "meta_element_set_no": 999,
        "meta_rev_at_epoch": 80960,
        "meta_bstar": 0.0032733881,
        "meta_mean_motion_dot": 5.835e-05,
        "meta_mean_motion_ddot": 0,
        "tle_line1": "1 36559U 93036BDV 25337.13681190  .00005835  00000+0  32734-2 0  9999",
        "tle_line2": "2 36559  74.1298  26.2197 0260318  61.9669 300.7529 13.95062123809606"
      },
      "geometry": {
        "type": "Point",
        "coordinates": [
          -173.16003555295552,
          46.00012529009562
        ]
      }
    },
    {
      "type": "Feature",
      "properties": {
        "norad_id": 36614,
        "name": "COSMOS 2251 DEB",
        "group": "cosmos-2251-debris",
        "lat": 6.878013519259285,
        "lon": 8.434918836444268,
        "alt_km": 694.0959390278877,
        "timestamp": "2025-12-04T10:51:50.503458+00:00",
        "meta_object_name": "COSMOS 2251 DEB",
        "meta_object_id": "1993-036BEC",
        "meta_epoch": "2025-12-03T20:55:07.059072",
        "meta_mean_motion": 14.60089968,
        "meta_eccentricity": 0.0016551,
        "meta_inclination": 74.0216,
        "meta_ra_of_asc_node": 191.525,
        "meta_arg_of_pericenter": 261.9036,
        "meta_mean_anomaly": 98.0252,
        "meta_ephemeris_type": 0,
        "meta_classification_type": "U",
        "meta_norad_cat_id": 36614,
        "meta_element_set_no": 999,
        "meta_rev_at_epoch": 65483,
        "meta_bstar": 0.0023551,
        "meta_mean_motion_dot": 0.00011335,
        "meta_mean_motion_ddot": 0,
        "tle_line1": "1 36614U 93036BEC 25337.87160948  .00011335  00000+0  23551-2 0  9994",
        "tle_line2": "2 36614  74.0216 191.5250 0016551 261.9036  98.0252 14.60089968654833"
      },
      "geometry": {
        "type": "Point",
        "coordinates": [
          8.434918836444268,
          6.878013519259285
        ]
      }
    },
    {
      "type": "Feature",
      "properties": {
        "norad_id": 36622,
        "name": "COSMOS 2251 DEB",
        "group": "cosmos-2251-debris",
        "lat": 54.59311164809884,
        "lon": -42.062610373057524,
        "alt_km": 684.3196817154876,
        "timestamp": "2025-12-04T10:51:50.503468+00:00",
        "meta_object_name": "COSMOS 2251 DEB",
        "meta_object_id": "1993-036BEL",
        "meta_epoch": "2025-12-03T05:01:52.297248",
        "meta_mean_motion": 14.76062801,
        "meta_eccentricity": 0.0068651,
        "meta_inclination": 74.0123,
        "meta_ra_of_asc_node": 164.1599,
        "meta_arg_of_pericenter": 301.4502,
        "meta_mean_anomaly": 57.9972,
        "meta_ephemeris_type": 0,
        "meta_classification_type": "U",
        "meta_norad_cat_id": 36622,
        "meta_element_set_no": 999,
        "meta_rev_at_epoch": 66609,
        "meta_bstar": 0.00094597,
        "meta_mean_motion_dot": 6.75e-05,
        "meta_mean_motion_ddot": 0,
        "tle_line1": "1 36622U 93036BEL 25337.20963307  .00006750  00000+0  94597-3 0  9994",
        "tle_line2": "2 36622  74.0123 164.1599 0068651 301.4502  57.9972 14.76062801666095"
      },
      "geometry": {
        "type": "Point",
        "coordinates": [
          -42.062610373057524,
          54.59311164809884
        ]
      }
    },
    {
      "type": "Feature",
      "properties": {
        "norad_id": 36632,
        "name": "COSMOS 2251 DEB",
        "group": "cosmos-2251-debris",
        "lat": -7.648240768407386,
        "lon": 130.00214380273954,
        "alt_km": 766.2286484808646,
        "timestamp": "2025-12-04T10:51:50.503478+00:00",
        "meta_object_name": "COSMOS 2251 DEB",
        "meta_object_id": "1993-036BEW",
        "meta_epoch": "2025-12-02T14:44:27.820896",
        "meta_mean_motion": 14.43079898,
        "meta_eccentricity": 0.00315122,
        "meta_inclination": 74.0016,
        "meta_ra_of_asc_node": 311.214,
        "meta_arg_of_pericenter": 61.7706,
        "meta_mean_anomaly": 298.6626,
        "meta_ephemeris_type": 0,
        "meta_classification_type": "U",
        "meta_norad_cat_id": 36632,
        "meta_element_set_no": 999,
        "meta_rev_at_epoch": 65069,
        "meta_bstar": 0.0010615143,
        "meta_mean_motion_dot": 3.557e-05,
        "meta_mean_motion_ddot": 0,
        "tle_line1": "1 36632U 93036BEW 25336.61421089  .00003557  00000+0  10615-2 0  9995",
        "tle_line2": "2 36632  74.0016 311.2140 0031512  61.7706 298.6626 14.43079898650699"
      },
      "geometry": {
        "type": "Point",
        "coordinates": [
          130.00214380273954,
          -7.648240768407386
        ]
      }
    },
    {
      "type": "Feature",
      "properties": {
        "norad_id": 37084,
        "name": "COSMOS 2251 DEB",
        "group": "cosmos-2251-debris",
        "lat": -73.89263437919682,
        "lon": 81.02138288350093,
        "alt_km": 503.8274228792043,
        "timestamp": "2025-12-04T10:51:50.503488+00:00",
        "meta_object_name": "COSMOS 2251 DEB",
        "meta_object_id": "1993-036BFE",
        "meta_epoch": "2025-12-01T06:28:31.045728",
        "meta_mean_motion": 15.00732489,
        "meta_eccentricity": 0.0098181,
        "meta_inclination": 74.0271,
        "meta_ra_of_asc_node": 184.8055,
        "meta_arg_of_pericenter": 268.0487,
        "meta_mean_anomaly": 90.9454,
        "meta_ephemeris_type": 0,
        "meta_classification_type": "U",
        "meta_norad_cat_id": 37084,
        "meta_element_set_no": 999,
        "meta_rev_at_epoch": 66095,
        "meta_bstar": 0.00060454,
        "meta_mean_motion_dot": 8.458e-05,
        "meta_mean_motion_ddot": 0,
        "tle_line1": "1 37084U 93036BFE 25335.26980377  .00008458  00000+0  60454-3 0  9999",
        "tle_line2": "2 37084  74.0271 184.8055 0098181 268.0487  90.9454 15.00732489660954"
      },
      "geometry": {
        "type": "Point",
        "coordinates": [
          81.02138288350093,
          -73.89263437919682
        ]
      }
    },
    {
      "type": "Feature",
      "properties": {
        "norad_id": 37085,
        "name": "COSMOS 2251 DEB",
        "group": "cosmos-2251-debris",
        "lat": -34.70612702747164,
        "lon": 65.5630618736449,
        "alt_km": 466.45626870671185,
        "timestamp": "2025-12-04T10:51:50.503498+00:00",
        "meta_object_name": "COSMOS 2251 DEB",
        "meta_object_id": "1993-036BFF",
        "meta_epoch": "2025-12-02T23:36:37.668384",
        "meta_mean_motion": 15.39020756,
        "meta_eccentricity": 0.0022856,
        "meta_inclination": 73.9503,
        "meta_ra_of_asc_node": 237.2473,
        "meta_arg_of_pericenter": 76.375,
        "meta_mean_anomaly": 284,
        "meta_ephemeris_type": 0,
        "meta_classification_type": "U",
        "meta_norad_cat_id": 37085,
        "meta_element_set_no": 999,
        "meta_rev_at_epoch": 66987,
        "meta_bstar": 0.0028642077,
        "meta_mean_motion_dot": 0.00113322,
        "meta_mean_motion_ddot": 0,
        "tle_line1": "1 37085U 93036BFF 25336.98376931  .00113322  00000+0  28642-2 0  9994",
        "tle_line2": "2 37085  73.9503 237.2473 0022856  76.3750 284.0000 15.39020756669879"
      },
      "geometry": {
        "type": "Point",
        "coordinates": [
          65.5630618736449,
          -34.70612702747164
        ]
      }
    }
  ]
}